[{"OBJECT_NAME":"HULIANWANG DIGUI-97","OBJECT_ID":"2025-258B","EPOCH":"2026-03-03T21:54:17.404416","MEAN_MOTION":13.29332202,"ECCENTRICITY":3.912e-5,"INCLINATION":50.002,"RA_OF_ASC_NODE":313.4681,"ARG_OF_PERICENTER":93.7637,"MEAN_ANOMALY":266.328,"EPHEMERIS_TYPE":0,"CLASSIFICATION_TYPE":"U","NORAD_CAT_ID":66413,"ELEMENT_SET_NO":999,"REV_AT_EPOCH":1572,"BSTAR":0.00017400436,"MEAN_MOTION_DOT":-4.3e-7,"MEAN_MOTION_DDOT":0},{"OBJECT_NAME":"HULIANWANG DIGUI-98","OBJECT_ID":"2025-258C","EPOCH":"2026-03-03T21:42:13.551264","MEAN_MOTION":13.29333735,"ECCENTRICITY":4.335e-5,"INCLINATION":50.0057,"RA_OF_ASC_NODE":313.466,"ARG_OF_PERICENTER":106.8541,"MEAN_ANOMALY":253.2378,"EPHEMERIS_TYPE":0,"CLASSIFICATION_TYPE":"U","NORAD_CAT_ID":66414,"ELEMENT_SET_NO":999,"REV_AT_EPOCH":1572,"BSTAR":0.00016442652,"MEAN_MOTION_DOT":-4.8e-7,"MEAN_MOTION_DDOT":0},{"OBJECT_NAME":"HULIANWANG DIGUI-99","OBJECT_ID":"2025-258D","EPOCH":"2026-03-03T22:42:24.242688","MEAN_MOTION":13.29331361,"ECCENTRICITY":3.244e-5,"INCLINATION":50.0055,"RA_OF_ASC_NODE":313.0171,"ARG_OF_PERICENTER":86.2627,"MEAN_ANOMALY":273.8282,"EPHEMERIS_TYPE":0,"CLASSIFICATION_TYPE":"U","NORAD_CAT_ID":66415,"ELEMENT_SET_NO":999,"REV_AT_EPOCH":1572,"BSTAR":0.00016708844,"MEAN_MOTION_DOT":-4.7e-7,"MEAN_MOTION_DDOT":0},{"OBJECT_NAME":"HULIANWANG DIGUI-100","OBJECT_ID":"2025-258E","EPOCH":"2026-03-03T21:30:12.309120","MEAN_MOTION":13.29334246,"ECCENTRICITY":3.022e-5,"INCLINATION":50.0059,"RA_OF_ASC_NODE":313.4249,"ARG_OF_PERICENTER":82.7996,"MEAN_ANOMALY":277.291,"EPHEMERIS_TYPE":0,"CLASSIFICATION_TYPE":"U","NORAD_CAT_ID":66416,"ELEMENT_SET_NO":999,"REV_AT_EPOCH":1573,"BSTAR":0.00016037987,"MEAN_MOTION_DOT":-5.0e-7,"MEAN_MOTION_DDOT":0},{"OBJECT_NAME":"HULIANWANG DIGUI-101","OBJECT_ID":"2025-258F","EPOCH":"2026-03-03T21:18:11.588832","MEAN_MOTION":13.29332461,"ECCENTRICITY":3.32e-5,"INCLINATION":50.0008,"RA_OF_ASC_NODE":313.3235,"ARG_OF_PERICENTER":79.1366,"MEAN_ANOMALY":280.9543,"EPHEMERIS_TYPE":0,"CLASSIFICATION_TYPE":"U","NORAD_CAT_ID":66417,"ELEMENT_SET_NO":999,"REV_AT_EPOCH":1573,"BSTAR":0.00016197327,"MEAN_MOTION_DOT":-4.9e-7,"MEAN_MOTION_DDOT":0},{"OBJECT_NAME":"HULIANWANG DIGUI-102","OBJECT_ID":"2025-258G","EPOCH":"2026-03-03T22:30:19.386432","MEAN_MOTION":13.29334452,"ECCENTRICITY":3.476e-5,"INCLINATION":50.0022,"RA_OF_ASC_NODE":312.9341,"ARG_OF_PERICENTER":100.3242,"MEAN_ANOMALY":259.7669,"EPHEMERIS_TYPE":0,"CLASSIFICATION_TYPE":"U","NORAD_CAT_ID":66418,"ELEMENT_SET_NO":999,"REV_AT_EPOCH":1573,"BSTAR":0.00015762174,"MEAN_MOTION_DOT":-5.1e-7,"MEAN_MOTION_DDOT":0},{"OBJECT_NAME":"HULIANWANG DIGUI-103","OBJECT_ID":"2025-258H","EPOCH":"2026-03-03T22:18:19.348704","MEAN_MOTION":13.29333435,"ECCENTRICITY":2.775e-5,"INCLINATION":50.0016,"RA_OF_ASC_NODE":312.8828,"ARG_OF_PERICENTER":80.3879,"MEAN_ANOMALY":279.7025,"EPHEMERIS_TYPE":0,"CLASSIFICATION_TYPE":"U","NORAD_CAT_ID":66419,"ELEMENT_SET_NO":999,"REV_AT_EPOCH":1573,"BSTAR":0.0001518228,"MEAN_MOTION_DOT":-5.4e-7,"MEAN_MOTION_DDOT":0},{"OBJECT_NAME":"HULIANWANG DIGUI-104","OBJECT_ID":"2025-258J","EPOCH":"2026-03-03T22:06:18.819360","MEAN_MOTION":13.29332793,"ECCENTRICITY":3.695e-5,"INCLINATION":50.0033,"RA_OF_ASC_NODE":312.8618,"ARG_OF_PERICENTER":104.4899,"MEAN_ANOMALY":255.6014,"EPHEMERIS_TYPE":0,"CLASSIFICATION_TYPE":"U","NORAD_CAT_ID":66420,"ELEMENT_SET_NO":999,"REV_AT_EPOCH":1572,"BSTAR":0.00014554009,"MEAN_MOTION_DOT":-5.7e-7,"MEAN_MOTION_DDOT":0},{"OBJECT_NAME":"HULIANWANG DIGUI-105","OBJECT_ID":"2025-285A","EPOCH":"2026-03-03T22:11:55.743936","MEAN_MOTION":13.29331748,"ECCENTRICITY":7.79e-6,"INCLINATION":50.0044,"RA_OF_ASC_NODE":163.7385,"ARG_OF_PERICENTER":299.7329,"MEAN_ANOMALY":60.3536,"EPHEMERIS_TYPE":0,"CLASSIFICATION_TYPE":"U","NORAD_CAT_ID":66915,"ELEMENT_SET_NO":999,"REV_AT_EPOCH":1205,"BSTAR":5.6287798e-5,"MEAN_MOTION_DOT":-9.8e-7,"MEAN_MOTION_DDOT":0},{"OBJECT_NAME":"HULIANWANG DIGUI-106","OBJECT_ID":"2025-285B","EPOCH":"2026-03-03T12:58:55.025760","MEAN_MOTION":13.29317096,"ECCENTRICITY":0.0006572,"INCLINATION":50.0047,"RA_OF_ASC_NODE":165.0553,"ARG_OF_PERICENTER":22.6417,"MEAN_ANOMALY":337.4744,"EPHEMERIS_TYPE":0,"CLASSIFICATION_TYPE":"U","NORAD_CAT_ID":66916,"ELEMENT_SET_NO":999,"REV_AT_EPOCH":1200,"BSTAR":-1.3842,"MEAN_MOTION_DOT":-0.00615961,"MEAN_MOTION_DDOT":0},{"OBJECT_NAME":"HULIANWANG DIGUI-107","OBJECT_ID":"2025-285C","EPOCH":"2026-03-03T21:47:52.696320","MEAN_MOTION":13.29331331,"ECCENTRICITY":3.49e-6,"INCLINATION":50.002,"RA_OF_ASC_NODE":163.6342,"ARG_OF_PERICENTER":331.1761,"MEAN_ANOMALY":28.9109,"EPHEMERIS_TYPE":0,"CLASSIFICATION_TYPE":"U","NORAD_CAT_ID":66917,"ELEMENT_SET_NO":999,"REV_AT_EPOCH":1205,"BSTAR":0.00010771274,"MEAN_MOTION_DOT":-7.4e-7,"MEAN_MOTION_DDOT":0},{"OBJECT_NAME":"HULIANWANG DIGUI-108","OBJECT_ID":"2025-285D","EPOCH":"2026-03-03T21:35:50.303328","MEAN_MOTION":13.29331759,"ECCENTRICITY":3.75e-6,"INCLINATION":50.0042,"RA_OF_ASC_NODE":163.6075,"ARG_OF_PERICENTER":358.6594,"MEAN_ANOMALY":1.4278,"EPHEMERIS_TYPE":0,"CLASSIFICATION_TYPE":"U","NORAD_CAT_ID":66918,"ELEMENT_SET_NO":999,"REV_AT_EPOCH":1205,"BSTAR":5.5590536e-5,"MEAN_MOTION_DOT":-9.8e-7,"MEAN_MOTION_DDOT":0},{"OBJECT_NAME":"HULIANWANG DIGUI-109","OBJECT_ID":"2025-285E","EPOCH":"2026-03-03T21:23:48.610176","MEAN_MOTION":13.29331554,"ECCENTRICITY":1.07e-6,"INCLINATION":50.0066,"RA_OF_ASC_NODE":163.5835,"ARG_OF_PERICENTER":358.1915,"MEAN_ANOMALY":1.8958,"EPHEMERIS_TYPE":0,"CLASSIFICATION_TYPE":"U","NORAD_CAT_ID":66919,"ELEMENT_SET_NO":999,"REV_AT_EPOCH":1206,"BSTAR":0.00015170097,"MEAN_MOTION_DOT":-5.4e-7,"MEAN_MOTION_DDOT":0},{"OBJECT_NAME":"HULIANWANG DIGUI-110","OBJECT_ID":"2025-285F","EPOCH":"2026-03-03T23:00:02.782656","MEAN_MOTION":13.29331162,"ECCENTRICITY":3.08e-6,"INCLINATION":50.0098,"RA_OF_ASC_NODE":163.296,"ARG_OF_PERICENTER":334.447,"MEAN_ANOMALY":25.64,"EPHEMERIS_TYPE":0,"CLASSIFICATION_TYPE":"U","NORAD_CAT_ID":66920,"ELEMENT_SET_NO":999,"REV_AT_EPOCH":1206,"BSTAR":3.5984454e-5,"MEAN_MOTION_DOT":-1.07e-6,"MEAN_MOTION_DDOT":0},{"OBJECT_NAME":"HULIANWANG DIGUI-111","OBJECT_ID":"2025-285G","EPOCH":"2026-03-03T22:48:00.914976","MEAN_MOTION":13.29331047,"ECCENTRICITY":1.88e-6,"INCLINATION":50.0115,"RA_OF_ASC_NODE":163.2657,"ARG_OF_PERICENTER":350.8271,"MEAN_ANOMALY":9.2601,"EPHEMERIS_TYPE":0,"CLASSIFICATION_TYPE":"U","NORAD_CAT_ID":66921,"ELEMENT_SET_NO":999,"REV_AT_EPOCH":1206,"BSTAR":5.5212261e-5,"MEAN_MOTION_DOT":-9.8e-7,"MEAN_MOTION_DDOT":0},{"OBJECT_NAME":"HULIANWANG DIGUI-112","OBJECT_ID":"2025-285H","EPOCH":"2026-03-03T18:59:28.358016","MEAN_MOTION":13.29331595,"ECCENTRICITY":4.44e-6,"INCLINATION":50.0078,"RA_OF_ASC_NODE":163.7343,"ARG_OF_PERICENTER":327.3188,"MEAN_ANOMALY":32.7681,"EPHEMERIS_TYPE":0,"CLASSIFICATION_TYPE":"U","NORAD_CAT_ID":66922,"ELEMENT_SET_NO":999,"REV_AT_EPOCH":1204,"BSTAR":0.00012867084,"MEAN_MOTION_DOT":-6.4e-7,"MEAN_MOTION_DDOT":0}]
