HULIANWANG DIGUI-97     
1 66413U 25258B   26062.91270144 -.00000043  00000+0  17400-3 0  9998
2 66413  50.0020 313.4681 0000391  93.7637 266.3280 13.29332202 15722
HULIANWANG DIGUI-98     
1 66414U 25258C   26062.90432351 -.00000048  00000+0  16443-3 0  9999
2 66414  50.0057 313.4660 0000433 106.8541 253.2378 13.29333735 15722
HULIANWANG DIGUI-99     
1 66415U 25258D   26062.94611392 -.00000047  00000+0  16709-3 0  9992
2 66415  50.0055 313.0171 0000324  86.2627 273.8282 13.29331361 15724
HULIANWANG DIGUI-100    
1 66416U 25258E   26062.89597580 -.00000050  00000+0  16038-3 0  9998
2 66416  50.0059 313.4249 0000302  82.7996 277.2910 13.29334246 15737
HULIANWANG DIGUI-101    
1 66417U 25258F   26062.88763413 -.00000049  00000+0  16197-3 0  9992
2 66417  50.0008 313.3235 0000332  79.1366 280.9543 13.29332461 15730
HULIANWANG DIGUI-102    
1 66418U 25258G   26062.93772438 -.00000051  00000+0  15762-3 0  9996
2 66418  50.0022 312.9341 0000347 100.3242 259.7669 13.29334452 15731
HULIANWANG DIGUI-103    
1 66419U 25258H   26062.92939061 -.00000054  00000+0  15182-3 0  9992
2 66419  50.0016 312.8828 0000277  80.3879 279.7025 13.29333435 15737
HULIANWANG DIGUI-104    
1 66420U 25258J   26062.92105115 -.00000057  00000+0  14554-3 0  9994
2 66420  50.0033 312.8618 0000369 104.4899 255.6014 13.29332793 15723
HULIANWANG DIGUI-105    
1 66915U 25285A   26062.92495074 -.00000098  00000+0  56288-4 0  9995
2 66915  50.0044 163.7385 0000077 299.7329  60.3536 13.29331748 12052
HULIANWANG DIGUI-106    
1 66916U 25285B   26062.54091465 -.00615961  00000+0 -13842+1 0  9997
2 66916  50.0047 165.0553 0006572  22.6417 337.4744 13.29317096 12009
HULIANWANG DIGUI-107    
1 66917U 25285C   26062.90824880 -.00000074  00000+0  10771-3 0  9996
2 66917  50.0020 163.6342 0000034 331.1761  28.9109 13.29331331 12058
HULIANWANG DIGUI-108    
1 66918U 25285D   26062.89988777 -.00000098  00000+0  55591-4 0  9997
2 66918  50.0042 163.6075 0000037 358.6594   1.4278 13.29331759 12054
HULIANWANG DIGUI-109    
1 66919U 25285E   26062.89153484 -.00000054  00000+0  15170-3 0  9997
2 66919  50.0066 163.5835 0000010 358.1915   1.8958 13.29331554 12060
HULIANWANG DIGUI-110    
1 66920U 25285F   26062.95836554 -.00000107  00000+0  35984-4 0  9997
2 66920  50.0098 163.2960 0000030 334.4470  25.6400 13.29331162 12069
HULIANWANG DIGUI-111    
1 66921U 25285G   26062.95001059 -.00000098  00000+0  55212-4 0  9997
2 66921  50.0115 163.2657 0000018 350.8271   9.2601 13.29331047 12063
HULIANWANG DIGUI-112    
1 66922U 25285H   26062.79130044 -.00000064  00000+0  12867-3 0  9998
2 66922  50.0078 163.7343 0000044 327.3188  32.7681 13.29331595 12049
